OBJECT_NAME,OBJECT_ID,EPOCH,MEAN_MOTION,ECCENTRICITY,INCLINATION,RA_OF_ASC_NODE,ARG_OF_PERICENTER,MEAN_ANOMALY,EPHEMERIS_TYPE,CLASSIFICATION_TYPE,NORAD_CAT_ID,ELEMENT_SET_NO,REV_AT_EPOCH,BSTAR,MEAN_MOTION_DOT,MEAN_MOTION_DDOT
SWARM A,2013-067B,2026-07-13T12:58:18.056064,15.51437876,.0003315,87.3299,46.4429,94.0952,266.0688,0,U,39452,999,71033,.11293E-3,.6699E-4,0
SWARM C,2013-067C,2026-07-13T12:58:09.936192,15.51437077,.0003301,87.3300,45.0238,94.2542,265.9097,0,U,39453,999,71029,.11168E-3,.6625E-4,0
BRITE-CA1 (TORONTO),2014-033L,2026-07-13T07:58:12.798912,14.72720389,.0078296,97.9769,322.7828,192.2372,167.6936,0,U,40020,999,64606,.89506E-4,.545E-5,0
OCO 2,2014-035A,2026-07-13T10:56:15.650880,14.57131460,.000145,98.2021,135.3497,81.2533,278.8830,0,U,40059,999,63987,.48239E-4,.172E-5,0
BRITE-PL2 (HEWELIUSZ),2014-049B,2026-07-13T00:19:59.957760,14.94683999,.00145416,97.9119,306.2169,29.3912,330.8123,0,U,40119,999,64530,.79659874E-4,.806E-5,0
MMS 1,2015-011A,2026-07-13T14:00:01.000224,0.28349956,.8305169,72.5157,348.4332,168.0169,111.0621,0,U,40482,999,135,0,-.1449E-4,0
MMS 2,2015-011B,2026-07-13T14:00:01.000224,0.28350081,.8307982,72.5202,348.4321,168.0191,111.0540,0,U,40483,999,135,0,-.145E-4,0
MMS 3,2015-011C,2026-07-13T14:00:01.000224,0.28349919,.8306349,72.5194,348.4441,168.0274,111.0238,0,U,40484,999,132,0,-.1449E-4,0
MMS 4,2015-011D,2026-07-13T14:00:01.000224,0.28350106,.8306296,72.5155,348.4274,168.0366,111.0228,0,U,40485,999,138,0,-.1449E-4,0
ASTROSAT,2015-052A,2026-07-11T18:43:55.447104,14.82549129,.00077569,5.9982,338.3312,22.2669,337.7795,0,U,40930,999,58348,.62854136E-4,.1187E-4,0
DAMPE,2015-078A,2026-07-13T12:16:00.562368,15.30851797,.0011772,97.4562,200.1085,351.7843,8.3203,0,U,41173,999,58857,.34928E-4,.965E-5,0
PISAT,2016-059B,2026-07-13T12:06:17.035776,14.69027907,.0030381,97.8190,193.8276,119.9868,240.4360,0,U,41784,999,52360,.88466E-4,.475E-5,0
HXMT (HUIYAN),2017-034A,2026-07-13T12:14:15.755712,15.18679884,.0032475,43.0153,36.4468,310.4135,49.3882,0,U,42758,999,50166,.12747E-3,.248E-4,0
FLYING LAPTOP,2017-042G,2026-07-13T12:19:53.507136,15.01306088,.0019756,97.4792,349.0548,37.9105,322.3507,0,U,42831,999,49040,.16438E-3,.2065E-4,0
ZHANGHENG 1-01 (CSES-1),2018-015C,2026-07-13T12:31:28.555392,15.20594785,.0016249,97.6883,0.7077,170.6260,189.5281,0,U,43194,999,46864,.18586E-3,.4013E-4,0
SALSAT,2020-068K,2026-07-13T12:03:32.995872,15.30157505,.0008994,97.8854,199.1769,199.0887,161.0016,0,U,46495,999,31938,.15263E-3,.4373E-4,0
IXPE,2021-121A,2026-07-13T12:00:00.998784,15.10476942,.0006691,0.2305,118.0527,119.6923,24.3281,0,U,49954,999,592,.39365E-3,.7601E-4,0
