SWARM A                 
1 39452U 13067B   26194.54048676  .00006699  00000+0  11293-3 0  9990
2 39452  87.3299  46.4429 0003315  94.0952 266.0688 15.51437876710330
SWARM C                 
1 39453U 13067C   26194.54039278  .00006625  00000+0  11168-3 0  9999
2 39453  87.3300  45.0238 0003301  94.2542 265.9097 15.51437077710299
BRITE-CA1 (TORONTO)     
1 40020U 14033L   26194.33209258  .00000545  00000+0  89506-4 0  9996
2 40020  97.9769 322.7828 0078296 192.2372 167.6936 14.72720389646068
OCO 2                   
1 40059U 14035A   26194.45573670  .00000172  00000+0  48239-4 0  9999
2 40059  98.2021 135.3497 0001450  81.2533 278.8830 14.57131460639877
BRITE-PL2 (HEWELIUSZ)   
1 40119U 14049B   26194.01388840  .00000806  00000+0  79660-4 0  9992
2 40119  97.9119 306.2169 0014541  29.3912 330.8123 14.94683999645301
MMS 1                   
1 40482U 15011A   26194.58334491 -.00001449  00000+0  00000+0 0  9992
2 40482  72.5157 348.4332 8305169 168.0169 111.0621  0.28349956  1354
MMS 2                   
1 40483U 15011B   26194.58334491 -.00001450  00000+0  00000+0 0  9995
2 40483  72.5202 348.4321 8307982 168.0191 111.0540  0.28350081  1355
MMS 3                   
1 40484U 15011C   26194.58334491 -.00001449  00000+0  00000+0 0  9994
2 40484  72.5194 348.4441 8306349 168.0274 111.0238  0.28349919  1326
MMS 4                   
1 40485U 15011D   26194.58334491 -.00001449  00000+0  00000+0 0  9995
2 40485  72.5155 348.4274 8306296 168.0366 111.0228  0.28350106  1386
ASTROSAT                
1 40930U 15052A   26192.78050286  .00001187  00000+0  62854-4 0  9990
2 40930   5.9982 338.3312 0007756  22.2669 337.7795 14.82549129583480
DAMPE                   
1 41173U 15078A   26194.51111762  .00000965  00000+0  34928-4 0  9992
2 41173  97.4562 200.1085 0011772 351.7843   8.3203 15.30851797588571
PISAT                   
1 41784U 16059B   26194.50436384  .00000475  00000+0  88466-4 0  9991
2 41784  97.8190 193.8276 0030381 119.9868 240.4360 14.69027907523603
HXMT (HUIYAN)           
1 42758U 17034A   26194.50990458  .00002480  00000+0  12747-3 0  9990
2 42758  43.0153  36.4468 0032475 310.4135  49.3882 15.18679884501662
FLYING LAPTOP           
1 42831U 17042G   26194.51381374  .00002065  00000+0  16438-3 0  9993
2 42831  97.4792 349.0548 0019756  37.9105 322.3507 15.01306088490405
ZHANGHENG 1-01 (CSES-1) 
1 43194U 18015C   26194.52185828  .00004013  00000+0  18586-3 0  9995
2 43194  97.6883   0.7077 0016249 170.6260 189.5281 15.20594785468647
SALSAT                  
1 46495U 20068K   26194.50246523  .00004373  00000+0  15263-3 0  9999
2 46495  97.8854 199.1769 0008994 199.0887 161.0016 15.30157505319386
IXPE                    
1 49954U 21121A   26194.50001156  .00007601  00000+0  39365-3 0  9990
2 49954   0.2305 118.0527 0006691 119.6923  24.3281 15.10476942  5925
